{
"type": "FeatureCollection",
"name": "cities",
"crs": { "type": "name", "properties": { "name": "urn:ogc:def:crs:OGC:1.3:CRS84" } },
"features": [
{ "type": "Feature", "properties": { "name": "İzmir" }, "geometry": { "type": "Point", "coordinates": [ 27.1498482, 38.4380955 ] } },
{ "type": "Feature", "properties": { "name": "Bucharest" }, "geometry": { "type": "Point", "coordinates": [ 26.0980008, 44.4353177 ] } },
{ "type": "Feature", "properties": { "name": "Ghardaia" }, "geometry": { "type": "Point", "coordinates": [ 3.6699979, 32.4899923 ] } },
{ "type": "Feature", "properties": { "name": "Banghazi" }, "geometry": { "type": "Point", "coordinates": [ 20.0647773, 32.1186793 ] } },
{ "type": "Feature", "properties": { "name": "Misrata" }, "geometry": { "type": "Point", "coordinates": [ 15.0999979, 32.3799732 ] } },
{ "type": "Feature", "properties": { "name": "Tripoli" }, "geometry": { "type": "Point", "coordinates": [ 13.1800118, 32.8925 ] } },
{ "type": "Feature", "properties": { "name": "Valletta" }, "geometry": { "type": "Point", "coordinates": [ 14.5147107, 35.8997325 ] } },
{ "type": "Feature", "properties": { "name": "Marrakesh" }, "geometry": { "type": "Point", "coordinates": [ -8.0019333, 31.631939 ] } },
{ "type": "Feature", "properties": { "name": "Safi" }, "geometry": { "type": "Point", "coordinates": [ -9.2399893, 32.3199768 ] } },
{ "type": "Feature", "properties": { "name": "Casablanca" }, "geometry": { "type": "Point", "coordinates": [ -7.6183133, 33.6019221 ] } },
{ "type": "Feature", "properties": { "name": "Rabat" }, "geometry": { "type": "Point", "coordinates": [ -6.8364082, 34.0253073 ] } },
{ "type": "Feature", "properties": { "name": "Fez" }, "geometry": { "type": "Point", "coordinates": [ -5.0023231, 34.0565455 ] } },
{ "type": "Feature", "properties": { "name": "Gibraltar" }, "geometry": { "type": "Point", "coordinates": [ -5.346014061862125, 36.128341769040006 ] } },
{ "type": "Feature", "properties": { "name": "Zuwara" }, "geometry": { "type": "Point", "coordinates": [ 12.0791487, 32.9344096 ] } },
{ "type": "Feature", "properties": { "name": "Oujda" }, "geometry": { "type": "Point", "coordinates": [ -1.9099716, 34.690013 ] } },
{ "type": "Feature", "properties": { "name": "Oran" }, "geometry": { "type": "Point", "coordinates": [ -0.6219186, 35.7119483 ] } },
{ "type": "Feature", "properties": { "name": "Sousse" }, "geometry": { "type": "Point", "coordinates": [ 10.6250256, 35.8299951 ] } },
{ "type": "Feature", "properties": { "name": "Constantine" }, "geometry": { "type": "Point", "coordinates": [ 6.5999483, 36.3599886 ] } },
{ "type": "Feature", "properties": { "name": "Algiers" }, "geometry": { "type": "Point", "coordinates": [ 3.0486067, 36.7650107 ] } },
{ "type": "Feature", "properties": { "name": "Tunis" }, "geometry": { "type": "Point", "coordinates": [ 10.1796781, 36.8027781 ] } },
{ "type": "Feature", "properties": { "name": "Annaba" }, "geometry": { "type": "Point", "coordinates": [ 7.7599808, 36.9200061 ] } },
{ "type": "Feature", "properties": { "name": "Valencia" }, "geometry": { "type": "Point", "coordinates": [ -0.4019579, 39.4869634 ] } },
{ "type": "Feature", "properties": { "name": "Catania" }, "geometry": { "type": "Point", "coordinates": [ 15.0799991, 37.4999707 ] } },
{ "type": "Feature", "properties": { "name": "Athens" }, "geometry": { "type": "Point", "coordinates": [ 23.7313752, 37.9852721 ] } },
{ "type": "Feature", "properties": { "name": "Palermo" }, "geometry": { "type": "Point", "coordinates": [ 13.3480814, 38.1269689 ] } },
{ "type": "Feature", "properties": { "name": "Thessaloniki" }, "geometry": { "type": "Point", "coordinates": [ 22.8830549, 40.6980522 ] } },
{ "type": "Feature", "properties": { "name": "Naples" }, "geometry": { "type": "Point", "coordinates": [ 14.2430655, 40.8419711 ] } },
{ "type": "Feature", "properties": { "name": "Tirana" }, "geometry": { "type": "Point", "coordinates": [ 19.818883, 41.3275407 ] } },
{ "type": "Feature", "properties": { "name": "Madrid" }, "geometry": { "type": "Point", "coordinates": [ -3.6852975, 40.4019721 ] } },
{ "type": "Feature", "properties": { "name": "Barcelona" }, "geometry": { "type": "Point", "coordinates": [ 2.1814245, 41.3852454 ] } },
{ "type": "Feature", "properties": { "name": "Andorra" }, "geometry": { "type": "Point", "coordinates": [ 1.526594255165481, 42.510753494167098 ] } },
{ "type": "Feature", "properties": { "name": "Bilbao" }, "geometry": { "type": "Point", "coordinates": [ -2.9299868, 43.2499815 ] } },
{ "type": "Feature", "properties": { "name": "Marseille" }, "geometry": { "type": "Point", "coordinates": [ 5.3730643, 43.2919249 ] } },
{ "type": "Feature", "properties": { "name": "Toulouse" }, "geometry": { "type": "Point", "coordinates": [ 1.4479809, 43.6219048 ] } },
{ "type": "Feature", "properties": { "name": "Monaco" }, "geometry": { "type": "Point", "coordinates": [ 7.4069132, 43.7396457 ] } },
{ "type": "Feature", "properties": { "name": "Florence" }, "geometry": { "type": "Point", "coordinates": [ 11.2500004, 43.7800008 ] } },
{ "type": "Feature", "properties": { "name": "Rome" }, "geometry": { "type": "Point", "coordinates": [ 12.4813126, 41.8979015 ] } },
{ "type": "Feature", "properties": { "name": "Skopje" }, "geometry": { "type": "Point", "coordinates": [ 21.4334615, 42.0000061 ] } },
{ "type": "Feature", "properties": { "name": "Podgorica" }, "geometry": { "type": "Point", "coordinates": [ 19.2663069, 42.4659725 ] } },
{ "type": "Feature", "properties": { "name": "Pristina" }, "geometry": { "type": "Point", "coordinates": [ 21.1659843, 42.6667096 ] } },
{ "type": "Feature", "properties": { "name": "Sofia" }, "geometry": { "type": "Point", "coordinates": [ 23.3147082, 42.6852953 ] } },
{ "type": "Feature", "properties": { "name": "Sarajevo" }, "geometry": { "type": "Point", "coordinates": [ 18.3830017, 43.8500224 ] } },
{ "type": "Feature", "properties": { "name": "Genoa" }, "geometry": { "type": "Point", "coordinates": [ 8.9300386, 44.4099882 ] } },
{ "type": "Feature", "properties": { "name": "Bordeaux" }, "geometry": { "type": "Point", "coordinates": [ -0.5969589, 44.8519589 ] } },
{ "type": "Feature", "properties": { "name": "Turin" }, "geometry": { "type": "Point", "coordinates": [ 7.6680146, 45.072333 ] } },
{ "type": "Feature", "properties": { "name": "Milan" }, "geometry": { "type": "Point", "coordinates": [ 9.2030631, 45.4719211 ] } },
{ "type": "Feature", "properties": { "name": "Lyon" }, "geometry": { "type": "Point", "coordinates": [ 4.8280846, 45.7719544 ] } },
{ "type": "Feature", "properties": { "name": "Limoges" }, "geometry": { "type": "Point", "coordinates": [ 1.2499906, 45.8299791 ] } },
{ "type": "Feature", "properties": { "name": "Belgrade" }, "geometry": { "type": "Point", "coordinates": [ 20.4660448, 44.8205913 ] } },
{ "type": "Feature", "properties": { "name": "Venice" }, "geometry": { "type": "Point", "coordinates": [ 12.3349987, 45.4386593 ] } },
{ "type": "Feature", "properties": { "name": "Zagreb" }, "geometry": { "type": "Point", "coordinates": [ 15.9999947, 45.8000067 ] } },
{ "type": "Feature", "properties": { "name": "Ljubljana" }, "geometry": { "type": "Point", "coordinates": [ 14.514969, 46.0552883 ] } },
{ "type": "Feature", "properties": { "name": "Seville" }, "geometry": { "type": "Point", "coordinates": [ -5.9800074, 37.4050153 ] } },
{ "type": "Feature", "properties": { "name": "Córdoba" }, "geometry": { "type": "Point", "coordinates": [ -4.7700037, 37.8799992 ] } },
{ "type": "Feature", "properties": { "name": "Lisbon" }, "geometry": { "type": "Point", "coordinates": [ -9.1468122, 38.7246687 ] } },
{ "type": "Feature", "properties": { "name": "Vigo" }, "geometry": { "type": "Point", "coordinates": [ -8.7299945, 42.2200185 ] } },
{ "type": "Feature", "properties": { "name": "Geneva" }, "geometry": { "type": "Point", "coordinates": [ 6.140028, 46.2100075 ] } },
{ "type": "Feature", "properties": { "name": "Bern" }, "geometry": { "type": "Point", "coordinates": [ 7.4669755, 46.9166828 ] } }
]
}
