{
"type": "FeatureCollection",
"name": "rivers",
"crs": { "type": "name", "properties": { "name": "urn:ogc:def:crs:OGC:1.3:CRS84" } },
"features": [
{ "type": "Feature", "properties": { "name": "Tejo" }, "geometry": { "type": "LineString", "coordinates": [ [ -7.11767371257173, 39.681686712971498 ], [ -7.454087286798824, 39.680679022618847 ], [ -7.653351609489164, 39.634015204438185 ], [ -7.827604539617766, 39.541307684801836 ], [ -7.98222042483269, 39.492370103497535 ], [ -8.1847403625776, 39.484670314983077 ], [ -8.375581427241002, 39.46800466608255 ], [ -8.520688849710609, 39.37124054661399 ], [ -8.660731981095978, 39.249335842475205 ], [ -8.7417606267515, 39.115390530048955 ], [ -8.791602545620947, 39.078183498669603 ] ] } },
{ "type": "Feature", "properties": { "name": "Tajo" }, "geometry": { "type": "MultiLineString", "coordinates": [ [ [ -5.995571661403005, 39.851857204846169 ], [ -6.326145799089318, 39.763593858669708 ], [ -6.532903204719048, 39.746101385670443 ], [ -6.726069708450211, 39.770053412834784 ], [ -6.896395229955829, 39.756927598929622 ], [ -7.11767371257173, 39.681686712971498 ] ], [ [ -2.732721727325782, 40.528379217926613 ], [ -2.961002366466005, 40.275061346903669 ], [ -3.099934454711274, 40.15620555314382 ], [ -3.225611537842155, 40.087450059772493 ], [ -3.380795863837989, 40.048150132422734 ], [ -3.56548743359815, 40.038279934471461 ], [ -3.738913539628129, 39.995491848070401 ], [ -3.901022507782443, 39.919785875018192 ], [ -4.059049037682882, 39.881080226871006 ], [ -4.21299313022871, 39.879374904528277 ], [ -4.318361375776817, 39.839429022931142 ], [ -4.42791541146704, 39.866920885090849 ], [ -4.628058234200125, 39.947897853902873 ], [ -4.757326829169756, 39.981590887809261 ], [ -4.815643682909581, 39.967896633123189 ], [ -4.889230922469039, 39.920793565370786 ], [ -4.977985195060683, 39.840230007708726 ], [ -5.07097693553709, 39.802997137907653 ], [ -5.216730312254072, 39.812143866346389 ] ], [ [ -1.905537075175857, 40.601036281499262 ], [ -2.06010128444666, 40.744851792776046 ], [ -2.144282192369246, 40.797406724340931 ], [ -2.242389898974636, 40.811204331814508 ], [ -2.576813930918149, 40.724387925562382 ] ] ] } },
{ "type": "Feature", "properties": { "name": "Tajo" }, "geometry": { "type": "MultiLineString", "coordinates": [ [ [ -5.995571661403005, 39.851857204846169 ], [ -5.850877650982738, 39.807157090527369 ], [ -5.65569576654633, 39.797261054154376 ], [ -5.214895799601436, 39.812298895977335 ] ], [ [ -2.733600226469207, 40.528250026717387 ], [ -2.576813930918149, 40.724387925562382 ] ] ] } },
{ "type": "Feature", "properties": { "name": "Ebro" }, "geometry": { "type": "LineString", "coordinates": [ [ -4.188860235911136, 43.011173407826561 ], [ -4.102250535233964, 43.001484076129259 ], [ -4.054759893853998, 42.952520657302557 ], [ -4.017449509687083, 42.861053372015533 ], [ -3.962672491842, 42.825034898142064 ], [ -3.89037716347525, 42.844413560637349 ], [ -3.821957566888159, 42.841855577572915 ], [ -3.757387864558268, 42.817283433683542 ], [ -3.709251268031551, 42.832631333869017 ], [ -3.677521938886343, 42.887899278129225 ], [ -3.626775681552431, 42.898002020976548 ], [ -3.522130906416123, 42.845447089411721 ], [ -3.451230841130382, 42.806922309317201 ], [ -3.336612514355977, 42.791858629072522 ], [ -3.154659796612293, 42.787414455612691 ], [ -3.010895962178836, 42.755220038474022 ], [ -2.905424363843281, 42.695275376757309 ], [ -2.842792527852851, 42.644167385116759 ], [ -2.823052130151666, 42.60184438760848 ], [ -2.755795253548058, 42.559676418831714 ], [ -2.64102189804214, 42.517611802842453 ], [ -2.563145514653741, 42.506863104848435 ], [ -2.522191941804635, 42.527326972062156 ], [ -2.395429653055999, 42.513787747006972 ], [ -2.182936163672991, 42.466245428783566 ], [ -1.994420538976669, 42.390849514093873 ], [ -1.747613898062923, 42.235923570516434 ], [ -1.405205857664157, 41.978264878821165 ], [ -1.110185105857909, 41.802099921674085 ], [ -0.748398402963858, 41.621516628589575 ], [ -0.526422288357878, 41.478915513240395 ], [ -0.444230922718873, 41.374322414947528 ], [ -0.301087205010447, 41.309416815833458 ], [ -0.097068650497761, 41.284198716797391 ], [ 0.040338982558069, 41.306057847991326 ], [ 0.111135695056305, 41.374994208515943 ], [ 0.167101271306649, 41.410650946284193 ], [ 0.208132358521596, 41.413131414982843 ], [ 0.262754347635109, 41.398894557937524 ], [ 0.330863884960365, 41.367966213569957 ], [ 0.362205641377273, 41.328433743122787 ], [ 0.356753777564847, 41.280271308174406 ], [ 0.364298536448359, 41.255725002706754 ], [ 0.395020176140292, 41.254303900304819 ], [ 0.5254256526718, 41.248903713335778 ], [ 0.589866163792465, 41.2196290144675 ], [ 0.631724074206716, 41.164696966991471 ], [ 0.652497999782895, 41.11919586879435 ], [ 0.651981234946106, 41.083125718976817 ], [ 0.613844028479207, 41.03752126709287 ], [ 0.537879673008547, 40.982382514041831 ], [ 0.517054070588927, 40.903886013029137 ], [ 0.551263868432841, 40.802031764954052 ], [ 0.650585971865155, 40.744619248779372 ], [ 0.891139764188836, 40.722346706435417 ] ] } },
{ "type": "Feature", "properties": { "name": "Borcea" }, "geometry": { "type": "LineString", "coordinates": [ [ 27.266584099776423, 44.137797145921581 ], [ 27.7687756692618, 44.362667141275608 ], [ 27.929954461429304, 44.486173814070298 ], [ 27.934605340464145, 44.592265530030261 ], [ 27.921841261764882, 44.670038560631099 ], [ 27.87667605945262, 44.744116726605682 ] ] } },
{ "type": "Feature", "properties": { "name": "Danube" }, "geometry": { "type": "MultiLineString", "coordinates": [ [ [ 18.939935207318563, 47.0 ], [ 18.939960564928185, 46.999818833972085 ], [ 18.936498244298605, 46.884761257625996 ], [ 18.944921502325542, 46.803603420761306 ], [ 18.982852003217431, 46.740196438414955 ], [ 18.965850457532611, 46.685109361308037 ], [ 18.894020216260003, 46.638290513496429 ], [ 18.873608025889723, 46.585864773140827 ], [ 18.904613885522451, 46.527832139341797 ], [ 18.918824904146049, 46.422928981787152 ], [ 18.916241082659894, 46.271155300476778 ], [ 18.859138624847731, 46.151085109889948 ], [ 18.747517530709501, 46.062666734082541 ], [ 18.726950310708332, 46.014400946346655 ], [ 18.759299757477891, 45.934690049406299 ], [ 18.839088168784031, 45.835755520500925 ], [ 18.894485304253465, 45.767103379917103 ], [ 18.947298618236687, 45.65581818256311 ], [ 18.917843052215119, 45.600834459143016 ], [ 18.953706495558379, 45.557994696797891 ], [ 19.055095655640059, 45.527247219583558 ], [ 19.064294060922236, 45.514999904821821 ], [ 19.033288201289508, 45.502184150178437 ], [ 19.007656691103477, 45.465803941099068 ], [ 19.004659458467302, 45.399503078904047 ], [ 19.093077833375332, 45.336922918857681 ], [ 19.272808464838818, 45.277960109971161 ], [ 19.474708285858753, 45.243336900077907 ], [ 19.698777296435139, 45.233053290077351 ], [ 19.828330112244942, 45.241476549003607 ], [ 19.86336673328816, 45.268710028744863 ], [ 19.907033318832646, 45.259149888256786 ], [ 19.959433220766584, 45.212899482125465 ], [ 20.044802687094375, 45.186182766321679 ], [ 20.163141716916755, 45.179051418588131 ], [ 20.253265415066892, 45.149880072507415 ], [ 20.282307569938439, 45.125773016611504 ], [ 20.314967075070513, 45.098694566501081 ], [ 20.339099969388144, 45.038439846421852 ], [ 20.325560744332961, 44.969090073847894 ], [ 20.352897576861722, 44.910902411317295 ], [ 20.421007114187034, 44.863825181986613 ], [ 20.500433791186538, 44.842586168416972 ], [ 20.591074253274201, 44.847185370608429 ], [ 20.635619337962112, 44.828400987315774 ], [ 20.634069044350952, 44.786284695382449 ], [ 20.6658500503396, 44.740990301861018 ], [ 20.731065707816185, 44.692595322915849 ], [ 20.912760044040851, 44.707969061523045 ], [ 21.360071241994262, 44.826669826551324 ], [ 21.523162062079564, 44.790082912796265 ], [ 21.597059360001538, 44.755408026958946 ], [ 21.636126743354566, 44.710449530221695 ], [ 21.740203077709907, 44.680683905837611 ], [ 21.90928836396688, 44.666111152008114 ], [ 22.026903924276724, 44.619860744977473 ], [ 22.093049757740175, 44.541932684745632 ], [ 22.200950147931053, 44.560691229616623 ], [ 22.350708449435444, 44.676136379590275 ], [ 22.497676222080031, 44.706263739180258 ], [ 22.642060174137782, 44.650969957397649 ], [ 22.720918410356376, 44.605520535144649 ], [ 22.734354282624111, 44.569915473320464 ], [ 22.700764601505227, 44.555523586644256 ], [ 22.620149366999726, 44.562344876015288 ], [ 22.554003533536275, 44.540330715190407 ], [ 22.502327101114872, 44.489584458755814 ], [ 22.49457563665635, 44.435427557635705 ], [ 22.53064578647394, 44.377963365516962 ], [ 22.581805454058497, 44.338327541382967 ], [ 22.647951287521948, 44.316468411088351 ], [ 22.683297966927682, 44.286470241808274 ], [ 22.687845493175018, 44.248307196919654 ], [ 22.77517866426399, 44.195235500517981 ], [ 22.945400832082782, 44.127280991924295 ], [ 23.028496535286934, 44.077981675414037 ], [ 23.024465772977067, 44.04723419819976 ], [ 22.985398390523358, 44.017003485822272 ], [ 22.911294386127054, 43.987186184594805 ], [ 22.868299595050303, 43.947886257245045 ], [ 22.856414015494465, 43.899026191205792 ], [ 22.867679477426009, 43.864558010044163 ], [ 22.919045851484896, 43.834456488875901 ], [ 23.224608595710151, 43.873885606535566 ], [ 23.534563836551854, 43.853576768952792 ], [ 23.950765822085089, 43.78665578913342 ], [ 24.226769646601952, 43.763478909224318 ], [ 24.430581495539627, 43.794381415170221 ], [ 25.159632602662555, 43.686325995348454 ], [ 25.497079705663964, 43.67079722711037 ], [ 25.686112095197075, 43.711750799959532 ], [ 25.818817173273999, 43.76683787706645 ], [ 25.933435500048347, 43.870552476215835 ], [ 26.215795525942838, 44.007288316602569 ], [ 26.489215528973546, 44.083976141585708 ], [ 26.84774661591365, 44.146194566426175 ], [ 27.086905145156379, 44.167407741574095 ], [ 27.221728956725997, 44.143300686577504 ], [ 27.266584099776423, 44.137797145921581 ], [ 27.338310988261526, 44.133378810883471 ], [ 27.412466668601951, 44.137667954712413 ], [ 27.594109327983176, 44.179267482708212 ], [ 27.860242954548767, 44.262621568330758 ], [ 28.0, 44.331674842014664 ] ], [ [ 28.0, 44.65087077139092 ], [ 27.99212120942633, 44.663708197675248 ], [ 27.907165155147823, 44.718769436360446 ], [ 27.87667605945262, 44.744116726605682 ], [ 27.85011437327978, 44.768378811233219 ], [ 27.830167270902905, 44.795612290974475 ], [ 27.830684034840374, 44.830080471236784 ], [ 27.862826776034922, 44.864755357074102 ], [ 27.894556105180186, 44.967617295501839 ], [ 27.925975375962878, 45.138717963363376 ], [ 27.964836052841633, 45.268710028744863 ], [ 28.0, 45.336061909239838 ] ] ] } },
{ "type": "Feature", "properties": { "name": "Loire" }, "geometry": { "type": "MultiLineString", "coordinates": [ [ [ 3.083254022055542, 46.985426947295821 ], [ 3.077793436469985, 47.0 ] ], [ [ 3.083132429553347, 46.985029621842031 ], [ 3.168228129341553, 46.97689052291674 ], [ 3.248557238125967, 46.951588534089716 ], [ 3.328886346910381, 46.846034756578035 ], [ 3.48954456447921, 46.829126867919236 ], [ 3.625486133191296, 46.740273160756004 ], [ 3.724352728618267, 46.638546468635639 ], [ 3.749069377475011, 46.557876949295434 ], [ 3.860294297330353, 46.506865896572123 ], [ 3.983877541614067, 46.460063673371124 ], [ 3.990056703828254, 46.379128628752596 ], [ 4.039490001541739, 46.238271670913448 ], [ 4.101281623683596, 46.165567522493227 ], [ 4.101281623683596, 46.062762570267182 ], [ 4.033310839327553, 45.976945270303943 ], [ 4.05184832597011, 45.925390953797603 ], [ 4.156894083611268, 45.85227358020142 ], [ 4.212506543538939, 45.744573175642316 ], [ 4.218685705753125, 45.628022910156176 ], [ 4.255760679038239, 45.476577793729149 ], [ 4.200148219110567, 45.368152846797138 ], [ 4.132177434754524, 45.30734392082794 ], [ 4.082744137041039, 45.237768041695155 ], [ 3.952981730543138, 45.198594125962437 ], [ 3.909727595043839, 45.115805007537041 ], [ 3.922085919472211, 45.037262256135044 ], [ 3.903548432829653, 44.971727496132161 ], [ 3.928265081686396, 44.871095255445788 ], [ 4.070385812612667, 44.809754549722484 ], [ 4.169252408039638, 44.774673396769913 ], [ 4.200148219110567, 44.822904484390868 ] ] ] } },
{ "type": "Feature", "properties": { "name": "Rhein" }, "geometry": { "type": "MultiLineString", "coordinates": [ [ [ 8.750815057069303, 46.6763243680752 ], [ 9.045577426457101, 46.757766424880629 ], [ 9.415580681803078, 46.834609280394034 ] ], [ [ 9.408759393331366, 46.834609280394034 ], [ 9.516763136309748, 46.906749579129837 ], [ 9.533816358837953, 46.96307689058608 ], [ 9.512126433315288, 47.0 ] ] ] } }
]
}
